{
  "type": "FeatureCollection",
  "features": [
    {
      "type": "Feature",
      "properties": {
        "norad_id": 46451,
        "name": "FENGYUN 1C DEB",
        "group": "fengyun-1c-debris",
        "lat": -25.379976462356936,
        "lon": -178.48754589719488,
        "alt_km": 712.0525400142415,
        "timestamp": "2025-12-12T03:50:52.707554+00:00",
        "meta_object_name": "FENGYUN 1C DEB",
        "meta_object_id": "1999-025EZG",
        "meta_epoch": "2025-12-11T06:53:30.054624",
        "meta_mean_motion": 14.20357181,
        "meta_eccentricity": 0.01713544,
        "meta_inclination": 98.1526,
        "meta_ra_of_asc_node": 4.6063,
        "meta_arg_of_pericenter": 190.1419,
        "meta_mean_anomaly": 232.5162,
        "meta_ephemeris_type": 0,
        "meta_classification_type": "U",
        "meta_norad_cat_id": 46451,
        "meta_element_set_no": 999,
        "meta_rev_at_epoch": 56986,
        "meta_bstar": 0.0051476823,
        "meta_mean_motion_dot": 0.00012758,
        "meta_mean_motion_ddot": 0,
        "tle_line1": "1 46451U 99025EZG 25345.28715341  .00012758  00000+0  51477-2 0  9993",
        "tle_line2": "2 46451  98.1526   4.6063 0171354 190.1419 232.5162 14.20357181569865"
      },
      "geometry": {
        "type": "Point",
        "coordinates": [
          -178.48754589719488,
          -25.379976462356936
        ]
      }
    },
    {
      "type": "Feature",
      "properties": {
        "norad_id": 46468,
        "name": "FENGYUN 1C DEB",
        "group": "fengyun-1c-debris",
        "lat": 72.39121625973107,
        "lon": 44.4099280274295,
        "alt_km": 832.6620681008981,
        "timestamp": "2025-12-12T03:50:52.707565+00:00",
        "meta_object_name": "FENGYUN 1C DEB",
        "meta_object_id": "1999-025EZK",
        "meta_epoch": "2025-12-10T04:26:29.971104",
        "meta_mean_motion": 14.2468742,
        "meta_eccentricity": 0.00457147,
        "meta_inclination": 98.8825,
        "meta_ra_of_asc_node": 71.932,
        "meta_arg_of_pericenter": 237.3466,
        "meta_mean_anomaly": 152.3634,
        "meta_ephemeris_type": 0,
        "meta_classification_type": "U",
        "meta_norad_cat_id": 46468,
        "meta_element_set_no": 999,
        "meta_rev_at_epoch": 73780,
        "meta_bstar": 0.0026815672,
        "meta_mean_motion_dot": 6.266e-05,
        "meta_mean_motion_ddot": 0,
        "tle_line1": "1 46468U 99025EZK 25344.18506911  .00006266  00000+0  26816-2 0  9996",
        "tle_line2": "2 46468  98.8825  71.9320 0045714 237.3466 152.3634 14.24687420737801"
      },
      "geometry": {
        "type": "Point",
        "coordinates": [
          44.4099280274295,
          72.39121625973107
        ]
      }
    },
    {
      "type": "Feature",
      "properties": {
        "norad_id": 46986,
        "name": "FENGYUN 1C DEB",
        "group": "fengyun-1c-debris",
        "lat": -25.571142704622403,
        "lon": -174.05937678801064,
        "alt_km": 667.4836361200623,
        "timestamp": "2025-12-12T03:50:52.707575+00:00",
        "meta_object_name": "FENGYUN 1C DEB",
        "meta_object_id": "1999-025EZL",
        "meta_epoch": "2025-12-01T08:01:27.390720",
        "meta_mean_motion": 14.47112781,
        "meta_eccentricity": 0.01038428,
        "meta_inclination": 98.2357,
        "meta_ra_of_asc_node": 359.3803,
        "meta_arg_of_pericenter": 247.048,
        "meta_mean_anomaly": 111.973,
        "meta_ephemeris_type": 0,
        "meta_classification_type": "U",
        "meta_norad_cat_id": 46986,
        "meta_element_set_no": 999,
        "meta_rev_at_epoch": 63235,
        "meta_bstar": 0.00048896767,
        "meta_mean_motion_dot": 1.859e-05,
        "meta_mean_motion_ddot": 0,
        "tle_line1": "1 46986U 99025EZL 25335.33434480  .00001859  00000+0  48897-3 0  9996",
        "tle_line2": "2 46986  98.2357 359.3803 0103842 247.0480 111.9730 14.47112781632350"
      },
      "geometry": {
        "type": "Point",
        "coordinates": [
          -174.05937678801064,
          -25.571142704622403
        ]
      }
    },
    {
      "type": "Feature",
      "properties": {
        "norad_id": 46989,
        "name": "FENGYUN 1C DEB",
        "group": "fengyun-1c-debris",
        "lat": 75.49567964473795,
        "lon": 107.5523172390543,
        "alt_km": 986.4536895093061,
        "timestamp": "2025-12-12T03:50:52.707585+00:00",
        "meta_object_name": "FENGYUN 1C DEB",
        "meta_object_id": "1999-025EZP",
        "meta_epoch": "2025-12-11T10:11:56.668416",
        "meta_mean_motion": 13.79296249,
        "meta_eccentricity": 0.02400096,
        "meta_inclination": 99.5086,
        "meta_ra_of_asc_node": 147.1941,
        "meta_arg_of_pericenter": 340.6799,
        "meta_mean_anomaly": 46.0855,
        "meta_ephemeris_type": 0,
        "meta_classification_type": "U",
        "meta_norad_cat_id": 46989,
        "meta_element_set_no": 999,
        "meta_rev_at_epoch": 71024,
        "meta_bstar": 0.0061779506,
        "meta_mean_motion_dot": 7.825e-05,
        "meta_mean_motion_ddot": 0,
        "tle_line1": "1 46989U 99025EZP 25345.42496144  .00007825  00000+0  61780-2 0  9999",
        "tle_line2": "2 46989  99.5086 147.1941 0240009 340.6799  46.0855 13.79296249710249"
      },
      "geometry": {
        "type": "Point",
        "coordinates": [
          107.5523172390543,
          75.49567964473795
        ]
      }
    },
    {
      "type": "Feature",
      "properties": {
        "norad_id": 46990,
        "name": "FENGYUN 1C DEB",
        "group": "fengyun-1c-debris",
        "lat": 64.91481681651632,
        "lon": 28.329609812939857,
        "alt_km": 640.5967449285736,
        "timestamp": "2025-12-12T03:50:52.707595+00:00",
        "meta_object_name": "FENGYUN 1C DEB",
        "meta_object_id": "1999-025EZQ",
        "meta_epoch": "2025-12-11T09:20:18.253824",
        "meta_mean_motion": 14.23788694,
        "meta_eccentricity": 0.03582567,
        "meta_inclination": 98.2321,
        "meta_ra_of_asc_node": 189.5915,
        "meta_arg_of_pericenter": 64.3954,
        "meta_mean_anomaly": 55.3495,
        "meta_ephemeris_type": 0,
        "meta_classification_type": "U",
        "meta_norad_cat_id": 46990,
        "meta_element_set_no": 999,
        "meta_rev_at_epoch": 8510,
        "meta_bstar": 0.0041008495,
        "meta_mean_motion_dot": 0.00018298,
        "meta_mean_motion_ddot": 0,
        "tle_line1": "1 46990U 99025EZQ 25345.38910016  .00018298  00000+0  41008-2 0  9992",
        "tle_line2": "2 46990  98.2321 189.5915 0358256  64.3954  55.3495 14.23788694 85100"
      },
      "geometry": {
        "type": "Point",
        "coordinates": [
          28.329609812939857,
          64.91481681651632
        ]
      }
    },
    {
      "type": "Feature",
      "properties": {
        "norad_id": 46992,
        "name": "FENGYUN 1C DEB",
        "group": "fengyun-1c-debris",
        "lat": -43.74658138099585,
        "lon": 144.3090635901129,
        "alt_km": 873.1837021000329,
        "timestamp": "2025-12-12T03:50:52.707605+00:00",
        "meta_object_name": "FENGYUN 1C DEB",
        "meta_object_id": "1999-025EZS",
        "meta_epoch": "2025-12-09T06:12:33.153984",
        "meta_mean_motion": 14.00691719,
        "meta_eccentricity": 0.0072103,
        "meta_inclination": 98.8975,
        "meta_ra_of_asc_node": 330.1075,
        "meta_arg_of_pericenter": 170.257,
        "meta_mean_anomaly": 190.0013,
        "meta_ephemeris_type": 0,
        "meta_classification_type": "U",
        "meta_norad_cat_id": 46992,
        "meta_element_set_no": 999,
        "meta_rev_at_epoch": 60908,
        "meta_bstar": 0.0006014,
        "meta_mean_motion_dot": 8.73e-06,
        "meta_mean_motion_ddot": 0,
        "tle_line1": "1 46992U 99025EZS 25343.25871706  .00000873  00000+0  60140-3 0  9999",
        "tle_line2": "2 46992  98.8975 330.1075 0072103 170.2570 190.0013 14.00691719609087"
      },
      "geometry": {
        "type": "Point",
        "coordinates": [
          144.3090635901129,
          -43.74658138099585
        ]
      }
    },
    {
      "type": "Feature",
      "properties": {
        "norad_id": 46993,
        "name": "FENGYUN 1C DEB",
        "group": "fengyun-1c-debris",
        "lat": 46.66291614531437,
        "lon": -65.96975674617643,
        "alt_km": 1188.0461428791969,
        "timestamp": "2025-12-12T03:50:52.707616+00:00",
        "meta_object_name": "FENGYUN 1C DEB",
        "meta_object_id": "1999-025EZT",
        "meta_epoch": "2025-12-09T13:52:54.599808",
        "meta_mean_motion": 13.69143946,
        "meta_eccentricity": 0.0262449,
        "meta_inclination": 98.7232,
        "meta_ra_of_asc_node": 102.3256,
        "meta_arg_of_pericenter": 307.8097,
        "meta_mean_anomaly": 66.0897,
        "meta_ephemeris_type": 0,
        "meta_classification_type": "U",
        "meta_norad_cat_id": 46993,
        "meta_element_set_no": 999,
        "meta_rev_at_epoch": 60214,
        "meta_bstar": 0.00067098,
        "meta_mean_motion_dot": 6.99e-06,
        "meta_mean_motion_ddot": 0,
        "tle_line1": "1 46993U 99025EZT 25343.57840972  .00000699  00000+0  67098-3 0  9991",
        "tle_line2": "2 46993  98.7232 102.3256 0262449 307.8097  66.0897 13.69143946602149"
      },
      "geometry": {
        "type": "Point",
        "coordinates": [
          -65.96975674617643,
          46.66291614531437
        ]
      }
    }
  ]
}